OBJECT_NAME,OBJECT_ID,EPOCH,MEAN_MOTION,ECCENTRICITY,INCLINATION,RA_OF_ASC_NODE,ARG_OF_PERICENTER,MEAN_ANOMALY,EPHEMERIS_TYPE,CLASSIFICATION_TYPE,NORAD_CAT_ID,ELEMENT_SET_NO,REV_AT_EPOCH,BSTAR,MEAN_MOTION_DOT,MEAN_MOTION_DDOT
ONEWEB-0534,2023-029B,2026-07-12T16:24:51.024096,13.20773186,.0002038,87.9185,269.3871,102.9936,257.1425,0,U,55797,999,16451,.66887E-4,.4E-6,0
ONEWEB-0556,2023-029C,2026-07-12T18:23:43.101312,13.20809153,.0001433,87.9175,269.3694,109.0146,251.1143,0,U,55798,999,16452,.72037E-4,.42E-6,0
ONEWEB-0562,2023-029D,2026-07-12T18:04:15.712032,13.20772171,.0001408,87.9180,269.3530,77.6945,282.4346,0,U,55799,999,16452,-.22683E-4,.4E-7,0
ONEWEB-0563,2023-029E,2026-07-12T17:56:58.449408,13.20769722,.0002067,87.9178,269.3847,104.8818,255.2544,0,U,55800,999,16451,-.28856E-4,.1E-7,0
ONEWEB-0564,2023-029F,2026-07-12T19:36:23.410368,13.20772636,.0001798,87.9178,269.3447,90.3673,269.7666,0,U,55801,999,16453,.5752E-5,.15E-6,0
ONEWEB-0638,2023-029G,2026-07-12T17:46:00.873696,13.14504693,.0001253,87.8954,284.6574,158.0803,202.0380,0,U,55802,999,16275,-.61926E-3,-.217E-5,0
ONEWEB-0639,2023-029H,2026-07-12T17:36:39.824064,13.19726194,.000249,87.9187,299.8885,123.2018,236.9353,0,U,55803,999,16227,.9649E-4,.52E-6,0
ONEWEB-0640,2023-029J,2026-07-12T17:59:43.272960,13.14502798,.0001365,87.8964,284.6460,119.1133,241.0133,0,U,55804,999,16277,-.74519E-3,-.263E-5,0
ONEWEB-0641,2023-029K,2026-07-12T19:19:01.344288,13.19727067,.000209,87.9201,299.8638,104.5134,255.6231,0,U,55805,999,16229,-.56502E-4,-.1E-6,0
ONEWEB-0642,2023-029L,2026-07-12T19:12:13.149216,13.19726392,.0002592,87.9186,299.8768,116.4677,243.6721,0,U,55806,999,16228,-.25701E-4,.3E-7,0
ONEWEB-0643,2023-029M,2026-07-12T19:05:57.228864,13.14502386,.0002643,87.8962,284.6250,109.8710,250.2705,0,U,55807,999,16275,.28383E-3,.118E-5,0
ONEWEB-0644,2023-029N,2026-07-12T19:05:23.824896,13.19725574,.0002289,87.9162,299.8821,111.6884,248.4493,0,U,55808,999,16228,.1109E-3,.57E-6,0
ONEWEB-0645,2023-029P,2026-07-12T15:58:53.008320,13.19726596,.000193,87.9191,299.9002,116.0068,244.1263,0,U,55809,999,16226,.36344E-5,.14E-6,0
ONEWEB-0646,2023-029Q,2026-07-12T18:13:04.136160,13.19727007,.0002162,87.9189,299.8823,105.6410,254.4962,0,U,55810,999,16226,.1208E-3,.61E-6,0
ONEWEB-0648,2023-029R,2026-07-12T16:30:40.040352,13.14503462,.0002252,87.8971,284.6227,124.7134,235.4208,0,U,55811,999,16274,.15905E-3,.72E-6,0
ONEWEB-0649,2023-029S,2026-07-12T18:49:27.202368,13.19726579,.0001997,87.9189,299.8758,109.7247,250.4101,0,U,55812,999,16230,.16341E-3,.78E-6,0
ONEWEB-0650,2023-029T,2026-07-12T18:42:37.905696,13.19726144,.0002452,87.9192,299.8779,128.1243,232.0111,0,U,55813,999,16227,.19112E-3,.89E-6,0
ONEWEB-0652,2023-029U,2026-07-12T17:52:52.275936,13.14502826,.0001999,87.8970,284.6180,95.2036,264.9321,0,U,55814,999,16272,-.55895E-3,-.194E-5,0
ONEWEB-0653,2023-029V,2026-07-12T19:19:38.440992,13.14501853,.0001936,87.8976,284.6035,100.0812,260.0537,0,U,55815,999,16276,-.32468E-3,-.108E-5,0
ONEWEB-0654,2023-029W,2026-07-12T19:12:47.388672,13.14501756,.0001916,87.8978,284.6003,87.2297,272.9052,0,U,55816,999,16278,.20107E-3,.87E-6,0
ONEWEB-0656,2023-029X,2026-07-12T17:37:35.120064,13.20770195,.0001864,87.9185,269.3409,91.0304,269.1043,0,U,55817,999,16452,-.22818E-3,-.8E-6,0
ONEWEB-0657,2023-029Y,2026-07-12T18:35:51.372096,13.19727194,.0002285,87.9182,299.8788,79.9426,280.1964,0,U,55818,999,16228,.20225E-3,.94E-6,0
ONEWEB-0658,2023-029Z,2026-07-12T18:29:00.336192,13.19726744,.0002325,87.9199,299.8564,109.3521,250.7863,0,U,55819,999,16229,.63751E-4,.38E-6,0
ONEWEB-0660,2023-029AA,2026-07-12T18:40:49.344096,13.14501623,.0001907,87.8995,284.5989,112.1470,247.9862,0,U,55820,999,16276,.81029E-3,.313E-5,0
ONEWEB-0661,2023-029AB,2026-07-12T17:41:27.531744,13.14502459,.0001783,87.8960,284.6500,105.7157,254.4169,0,U,55821,999,16274,-.49607E-3,-.171E-5,0
ONEWEB-0662,2023-029AC,2026-07-12T18:31:42.784608,13.14513486,.0001604,87.8967,284.6504,90.4030,269.7284,0,U,55822,999,16279,-.82203E-2,-.3034E-4,0
ONEWEB-0663,2023-029AD,2026-07-12T18:23:22.888032,13.20870909,.0002152,87.9188,269.4063,108.1469,251.9899,0,U,55823,999,16452,-.12136E-3,-.36E-6,0
ONEWEB-0664,2023-029AE,2026-07-12T17:18:13.034016,13.20771850,.0001625,87.9178,269.3918,100.9214,259.2102,0,U,55824,999,16451,.79659E-4,.45E-6,0
ONEWEB-0665,2023-029AF,2026-07-12T17:36:53.546976,13.14501982,.0001974,87.8963,284.6311,110.1215,250.0127,0,U,55825,999,16276,-.47849E-3,-.165E-5,0
ONEWEB-0666,2023-029AG,2026-07-12T15:19:24.290112,13.20772898,.0002494,87.9173,269.3985,86.7108,273.4310,0,U,55826,999,16451,-.81926E-4,-.2E-6,0
