ONEWEB-0534             
1 55797U 23029B   26193.68392389  .00000040  00000+0  66887-4 0  9990
2 55797  87.9185 269.3871 0002038 102.9936 257.1425 13.20773186164513
ONEWEB-0556             
1 55798U 23029C   26193.76647108  .00000042  00000+0  72037-4 0  9998
2 55798  87.9175 269.3694 0001433 109.0146 251.1143 13.20809153164521
ONEWEB-0562             
1 55799U 23029D   26193.75295963  .00000004  00000+0 -22683-4 0  9997
2 55799  87.9180 269.3530 0001408  77.6945 282.4346 13.20772171164527
ONEWEB-0563             
1 55800U 23029E   26193.74789872  .00000001  00000+0 -28856-4 0  9991
2 55800  87.9178 269.3847 0002067 104.8818 255.2544 13.20769722164517
ONEWEB-0564             
1 55801U 23029F   26193.81693762  .00000015  00000+0  57520-5 0  9997
2 55801  87.9178 269.3447 0001798  90.3673 269.7666 13.20772636164537
ONEWEB-0638             
1 55802U 23029G   26193.74028789 -.00000217  00000+0 -61926-3 0  9990
2 55802  87.8954 284.6574 0001253 158.0803 202.0380 13.14504693162757
ONEWEB-0639             
1 55803U 23029H   26193.73379426  .00000052  00000+0  96490-4 0  9997
2 55803  87.9187 299.8885 0002490 123.2018 236.9353 13.19726194162276
ONEWEB-0640             
1 55804U 23029J   26193.74980640 -.00000263  00000+0 -74519-3 0  9998
2 55804  87.8964 284.6460 0001365 119.1133 241.0133 13.14502798162777
ONEWEB-0641             
1 55805U 23029K   26193.80487667 -.00000010  00000+0 -56502-4 0  9990
2 55805  87.9201 299.8638 0002090 104.5134 255.6231 13.19727067162293
ONEWEB-0642             
1 55806U 23029L   26193.80015219  .00000003  00000+0 -25701-4 0  9999
2 55806  87.9186 299.8768 0002592 116.4677 243.6721 13.19726392162281
ONEWEB-0643             
1 55807U 23029M   26193.79580126  .00000118  00000+0  28383-3 0  9996
2 55807  87.8962 284.6250 0002643 109.8710 250.2705 13.14502386162750
ONEWEB-0644             
1 55808U 23029N   26193.79541464  .00000057  00000+0  11090-3 0  9998
2 55808  87.9162 299.8821 0002289 111.6884 248.4493 13.19725574162287
ONEWEB-0645             
1 55809U 23029P   26193.66589130  .00000014  00000+0  36344-5 0  9991
2 55809  87.9191 299.9002 0001930 116.0068 244.1263 13.19726596162268
ONEWEB-0646             
1 55810U 23029Q   26193.75907565  .00000061  00000+0  12080-3 0  9990
2 55810  87.9189 299.8823 0002162 105.6410 254.4962 13.19727007162268
ONEWEB-0648             
1 55811U 23029R   26193.68796343  .00000072  00000+0  15905-3 0  9994
2 55811  87.8971 284.6227 0002252 124.7134 235.4208 13.14503462162749
ONEWEB-0649             
1 55812U 23029S   26193.78434262  .00000078  00000+0  16341-3 0  9996
2 55812  87.9189 299.8758 0001997 109.7247 250.4101 13.19726579162304
ONEWEB-0650             
1 55813U 23029T   26193.77960539  .00000089  00000+0  19112-3 0  9998
2 55813  87.9192 299.8779 0002452 128.1243 232.0111 13.19726144162271
ONEWEB-0652             
1 55814U 23029U   26193.74504949 -.00000194  00000+0 -55895-3 0  9992
2 55814  87.8970 284.6180 0001999  95.2036 264.9321 13.14502826162723
ONEWEB-0653             
1 55815U 23029V   26193.80530603 -.00000108  00000+0 -32468-3 0  9992
2 55815  87.8976 284.6035 0001936 100.0812 260.0537 13.14501853162766
ONEWEB-0654             
1 55816U 23029W   26193.80054848  .00000087  00000+0  20107-3 0  9996
2 55816  87.8978 284.6003 0001916  87.2297 272.9052 13.14501756162783
ONEWEB-0656             
1 55817U 23029X   26193.73443426 -.00000080  00000+0 -22818-3 0  9999
2 55817  87.9185 269.3409 0001864  91.0304 269.1043 13.20770195164523
ONEWEB-0657             
1 55818U 23029Y   26193.77490014  .00000094  00000+0  20225-3 0  9992
2 55818  87.9182 299.8788 0002285  79.9426 280.1964 13.19727194162282
ONEWEB-0658             
1 55819U 23029Z   26193.77014278  .00000038  00000+0  63751-4 0  9997
2 55819  87.9199 299.8564 0002325 109.3521 250.7863 13.19726744162294
ONEWEB-0660             
1 55820U 23029AA  26193.77834889  .00000313  00000+0  81029-3 0  9990
2 55820  87.8995 284.5989 0001907 112.1470 247.9862 13.14501623162762
ONEWEB-0661             
1 55821U 23029AB  26193.73712421 -.00000171  00000+0 -49607-3 0  9994
2 55821  87.8960 284.6500 0001783 105.7157 254.4169 13.14502459162746
ONEWEB-0662             
1 55822U 23029AC  26193.77202297 -.00003034  00000+0 -82203-2 0  9993
2 55822  87.8967 284.6504 0001604  90.4030 269.7284 13.14513486162794
ONEWEB-0663             
1 55823U 23029AD  26193.76623713 -.00000036  00000+0 -12136-3 0  9991
2 55823  87.9188 269.4063 0002152 108.1469 251.9899 13.20870909164525
ONEWEB-0664             
1 55824U 23029AE  26193.72098419  .00000045  00000+0  79659-4 0  9999
2 55824  87.9178 269.3918 0001625 100.9214 259.2102 13.20771850164517
ONEWEB-0665             
1 55825U 23029AF  26193.73395309 -.00000165  00000+0 -47849-3 0  9999
2 55825  87.8963 284.6311 0001974 110.1215 250.0127 13.14501982162768
ONEWEB-0666             
1 55826U 23029AG  26193.63847558 -.00000020  00000+0 -81926-4 0  9992
2 55826  87.9173 269.3985 0002494  86.7108 273.4310 13.20772898164518
